<?xml version="1.0" encoding="UTF-8"?>
<kml xmlns="http://www.opengis.net/kml/2.2">
<Document>
  <Style id="schengenStyle"><LineStyle><color>ffff0000</color><width>2</width></LineStyle></Style>
  <Style id="nonSchengenStyle"><LineStyle><color>ff0000ff</color><width>2</width></LineStyle></Style>
  <Placemark>
    <name>Route LYBE - LEBL (VLG)</name>
    <styleUrl>#nonSchengenStyle</styleUrl>
    <LineString>
      <altitudeMode>clampToGround</altitudeMode>
      <extrude>1</extrude>
      <tessellate>1</tessellate>
      <coordinates>
        20.306944444444444,44.81944444444445
        2.0832941,41.297445
      </coordinates>
    </LineString>
  </Placemark>
  <Placemark>
    <name>Route EGCC - LEBL (VLG)</name>
    <styleUrl>#nonSchengenStyle</styleUrl>
    <LineString>
      <altitudeMode>clampToGround</altitudeMode>
      <extrude>1</extrude>
      <tessellate>1</tessellate>
      <coordinates>
        -2.275,53.35388888888889
        2.0832941,41.297445
      </coordinates>
    </LineString>
  </Placemark>
  <Placemark>
    <name>Route KJFK - LEBL (AAL)</name>
    <styleUrl>#nonSchengenStyle</styleUrl>
    <LineString>
      <altitudeMode>clampToGround</altitudeMode>
      <extrude>1</extrude>
      <tessellate>1</tessellate>
      <coordinates>
        -73.77833333333334,40.640277777777776
        2.0832941,41.297445
      </coordinates>
    </LineString>
  </Placemark>
  <Placemark>
    <name>Route LROP - LEBL (VLG)</name>
    <styleUrl>#nonSchengenStyle</styleUrl>
    <LineString>
      <altitudeMode>clampToGround</altitudeMode>
      <extrude>1</extrude>
      <tessellate>1</tessellate>
      <coordinates>
        26.084999999999997,44.571111111111115
        2.0832941,41.297445
      </coordinates>
    </LineString>
  </Placemark>
  <Placemark>
    <name>Route URKK - LEBL (VLG)</name>
    <styleUrl>#nonSchengenStyle</styleUrl>
    <LineString>
      <altitudeMode>clampToGround</altitudeMode>
      <extrude>1</extrude>
      <tessellate>1</tessellate>
      <coordinates>
        39.169999999999995,45.03472222222222
        2.0832941,41.297445
      </coordinates>
    </LineString>
  </Placemark>
  <Placemark>
    <name>Route UUEE - LEBL (ABG)</name>
    <styleUrl>#nonSchengenStyle</styleUrl>
    <LineString>
      <altitudeMode>clampToGround</altitudeMode>
      <extrude>1</extrude>
      <tessellate>1</tessellate>
      <coordinates>
        37.41305555555555,55.972500000000004
        2.0832941,41.297445
      </coordinates>
    </LineString>
  </Placemark>
  <Placemark>
    <name>Route KATL - LEBL (DAL)</name>
    <styleUrl>#nonSchengenStyle</styleUrl>
    <LineString>
      <altitudeMode>clampToGround</altitudeMode>
      <extrude>1</extrude>
      <tessellate>1</tessellate>
      <coordinates>
        -84.43333333333334,33.63333333333333
        2.0832941,41.297445
      </coordinates>
    </LineString>
  </Placemark>
  <Placemark>
    <name>Route ULLI - LEBL (VLG)</name>
    <styleUrl>#nonSchengenStyle</styleUrl>
    <LineString>
      <altitudeMode>clampToGround</altitudeMode>
      <extrude>1</extrude>
      <tessellate>1</tessellate>
      <coordinates>
        30.2625,59.80027777777777
        2.0832941,41.297445
      </coordinates>
    </LineString>
  </Placemark>
  <Placemark>
    <name>Route UUDD - LEBL (VLG)</name>
    <styleUrl>#nonSchengenStyle</styleUrl>
    <LineString>
      <altitudeMode>clampToGround</altitudeMode>
      <extrude>1</extrude>
      <tessellate>1</tessellate>
      <coordinates>
        37.906388888888884,55.40861111111111
        2.0832941,41.297445
      </coordinates>
    </LineString>
  </Placemark>
  <Placemark>
    <name>Route EGLL - LEBL (BAW)</name>
    <styleUrl>#nonSchengenStyle</styleUrl>
    <LineString>
      <altitudeMode>clampToGround</altitudeMode>
      <extrude>1</extrude>
      <tessellate>1</tessellate>
      <coordinates>
        -0.4613888888888889,51.4775
        2.0832941,41.297445
      </coordinates>
    </LineString>
  </Placemark>
  <Placemark>
    <name>Route OLBA - LEBL (VLG)</name>
    <styleUrl>#nonSchengenStyle</styleUrl>
    <LineString>
      <altitudeMode>clampToGround</altitudeMode>
      <extrude>1</extrude>
      <tessellate>1</tessellate>
      <coordinates>
        35.49,33.81916666666667
        2.0832941,41.297445
      </coordinates>
    </LineString>
  </Placemark>
  <Placemark>
    <name>Route KEWR - LEBL (UAL)</name>
    <styleUrl>#nonSchengenStyle</styleUrl>
    <LineString>
      <altitudeMode>clampToGround</altitudeMode>
      <extrude>1</extrude>
      <tessellate>1</tessellate>
      <coordinates>
        -74.16833333333334,40.696666666666665
        2.0832941,41.297445
      </coordinates>
    </LineString>
  </Placemark>
  <Placemark>
    <name>Route SBGR - LEBL (SIA)</name>
    <styleUrl>#nonSchengenStyle</styleUrl>
    <LineString>
      <altitudeMode>clampToGround</altitudeMode>
      <extrude>1</extrude>
      <tessellate>1</tessellate>
      <coordinates>
        -46.47,-23.433333333333334
        2.0832941,41.297445
      </coordinates>
    </LineString>
  </Placemark>
  <Placemark>
    <name>Route EIDW - LEBL (RYR)</name>
    <styleUrl>#nonSchengenStyle</styleUrl>
    <LineString>
      <altitudeMode>clampToGround</altitudeMode>
      <extrude>1</extrude>
      <tessellate>1</tessellate>
      <coordinates>
        -6.27,53.421388888888885
        2.0832941,41.297445
      </coordinates>
    </LineString>
  </Placemark>
  <Placemark>
    <name>Route EGKK - LEBL (MON)</name>
    <styleUrl>#nonSchengenStyle</styleUrl>
    <LineString>
      <altitudeMode>clampToGround</altitudeMode>
      <extrude>1</extrude>
      <tessellate>1</tessellate>
      <coordinates>
        -0.19027777777777777,51.14805555555556
        2.0832941,41.297445
      </coordinates>
    </LineString>
  </Placemark>
  <Placemark>
    <name>Route LTBA - LEBL (THY)</name>
    <styleUrl>#nonSchengenStyle</styleUrl>
    <LineString>
      <altitudeMode>clampToGround</altitudeMode>
      <extrude>1</extrude>
      <tessellate>1</tessellate>
      <coordinates>
        28.81416666666667,40.976111111111116
        2.0832941,41.297445
      </coordinates>
    </LineString>
  </Placemark>
  <Placemark>
    <name>Route EGBB - LEBL (MON)</name>
    <styleUrl>#nonSchengenStyle</styleUrl>
    <LineString>
      <altitudeMode>clampToGround</altitudeMode>
      <extrude>1</extrude>
      <tessellate>1</tessellate>
      <coordinates>
        -1.7480555555555557,52.45388888888889
        2.0832941,41.297445
      </coordinates>
    </LineString>
  </Placemark>
  <Placemark>
    <name>Route EGGD - LEBL (EZY)</name>
    <styleUrl>#nonSchengenStyle</styleUrl>
    <LineString>
      <altitudeMode>clampToGround</altitudeMode>
      <extrude>1</extrude>
      <tessellate>1</tessellate>
      <coordinates>
        -2.7191666666666667,51.382777777777775
        2.0832941,41.297445
      </coordinates>
    </LineString>
  </Placemark>
  <Placemark>
    <name>Route EIDW - LEBL (EIN)</name>
    <styleUrl>#nonSchengenStyle</styleUrl>
    <LineString>
      <altitudeMode>clampToGround</altitudeMode>
      <extrude>1</extrude>
      <tessellate>1</tessellate>
      <coordinates>
        -6.27,53.421388888888885
        2.0832941,41.297445
      </coordinates>
    </LineString>
  </Placemark>
  <Placemark>
    <name>Route CYUL - LEBL (ROU)</name>
    <styleUrl>#nonSchengenStyle</styleUrl>
    <LineString>
      <altitudeMode>clampToGround</altitudeMode>
      <extrude>1</extrude>
      <tessellate>1</tessellate>
      <coordinates>
        -73.74138888888889,45.46805555555556
        2.0832941,41.297445
      </coordinates>
    </LineString>
  </Placemark>
  <Placemark>
    <name>Route EGGP - LEBL (EZY)</name>
    <styleUrl>#nonSchengenStyle</styleUrl>
    <LineString>
      <altitudeMode>clampToGround</altitudeMode>
      <extrude>1</extrude>
      <tessellate>1</tessellate>
      <coordinates>
        -2.8497222222222223,53.33361111111111
        2.0832941,41.297445
      </coordinates>
    </LineString>
  </Placemark>
  <Placemark>
    <name>Route EGCC - LEBL (RYR)</name>
    <styleUrl>#nonSchengenStyle</styleUrl>
    <LineString>
      <altitudeMode>clampToGround</altitudeMode>
      <extrude>1</extrude>
      <tessellate>1</tessellate>
      <coordinates>
        -2.275,53.35388888888889
        2.0832941,41.297445
      </coordinates>
    </LineString>
  </Placemark>
  <Placemark>
    <name>Route EGPH - LEBL (RYR)</name>
    <styleUrl>#nonSchengenStyle</styleUrl>
    <LineString>
      <altitudeMode>clampToGround</altitudeMode>
      <extrude>1</extrude>
      <tessellate>1</tessellate>
      <coordinates>
        -3.3725,55.95
        2.0832941,41.297445
      </coordinates>
    </LineString>
  </Placemark>
  <Placemark>
    <name>Route UWKD - LEBL (VLG)</name>
    <styleUrl>#nonSchengenStyle</styleUrl>
    <LineString>
      <altitudeMode>clampToGround</altitudeMode>
      <extrude>1</extrude>
      <tessellate>1</tessellate>
      <coordinates>
        49.280277777777776,55.606944444444444
        2.0832941,41.297445
      </coordinates>
    </LineString>
  </Placemark>
  <Placemark>
    <name>Route DAAG - LEBL (VLG)</name>
    <styleUrl>#nonSchengenStyle</styleUrl>
    <LineString>
      <altitudeMode>clampToGround</altitudeMode>
      <extrude>1</extrude>
      <tessellate>1</tessellate>
      <coordinates>
        3.2144444444444447,36.693888888888885
        2.0832941,41.297445
      </coordinates>
    </LineString>
  </Placemark>
  <Placemark>
    <name>Route EGAA - LEBL (EZY)</name>
    <styleUrl>#nonSchengenStyle</styleUrl>
    <LineString>
      <altitudeMode>clampToGround</altitudeMode>
      <extrude>1</extrude>
      <tessellate>1</tessellate>
      <coordinates>
        -6.215833333333333,54.6575
        2.0832941,41.297445
      </coordinates>
    </LineString>
  </Placemark>
  <Placemark>
    <name>Route EGBB - LEBL (RYR)</name>
    <styleUrl>#nonSchengenStyle</styleUrl>
    <LineString>
      <altitudeMode>clampToGround</altitudeMode>
      <extrude>1</extrude>
      <tessellate>1</tessellate>
      <coordinates>
        -1.7480555555555557,52.45388888888889
        2.0832941,41.297445
      </coordinates>
    </LineString>
  </Placemark>
  <Placemark>
    <name>Route LROP - LEBL (ROT)</name>
    <styleUrl>#nonSchengenStyle</styleUrl>
    <LineString>
      <altitudeMode>clampToGround</altitudeMode>
      <extrude>1</extrude>
      <tessellate>1</tessellate>
      <coordinates>
        26.084999999999997,44.571111111111115
        2.0832941,41.297445
      </coordinates>
    </LineString>
  </Placemark>
  <Placemark>
    <name>Route LROP - LEBL (BMS)</name>
    <styleUrl>#nonSchengenStyle</styleUrl>
    <LineString>
      <altitudeMode>clampToGround</altitudeMode>
      <extrude>1</extrude>
      <tessellate>1</tessellate>
      <coordinates>
        26.084999999999997,44.571111111111115
        2.0832941,41.297445
      </coordinates>
    </LineString>
  </Placemark>
  <Placemark>
    <name>Route LLBG - LEBL (AEA)</name>
    <styleUrl>#nonSchengenStyle</styleUrl>
    <LineString>
      <altitudeMode>clampToGround</altitudeMode>
      <extrude>1</extrude>
      <tessellate>1</tessellate>
      <coordinates>
        34.885555555555555,32.00944444444445
        2.0832941,41.297445
      </coordinates>
    </LineString>
  </Placemark>
  <Placemark>
    <name>Route EGLL - LEBL (BAW)</name>
    <styleUrl>#nonSchengenStyle</styleUrl>
    <LineString>
      <altitudeMode>clampToGround</altitudeMode>
      <extrude>1</extrude>
      <tessellate>1</tessellate>
      <coordinates>
        -0.4613888888888889,51.4775
        2.0832941,41.297445
      </coordinates>
    </LineString>
  </Placemark>
  <Placemark>
    <name>Route KMIA - LEBL (AAL)</name>
    <styleUrl>#nonSchengenStyle</styleUrl>
    <LineString>
      <altitudeMode>clampToGround</altitudeMode>
      <extrude>1</extrude>
      <tessellate>1</tessellate>
      <coordinates>
        -80.28333333333333,25.8
        2.0832941,41.297445
      </coordinates>
    </LineString>
  </Placemark>
  <Placemark>
    <name>Route EGKK - LEBL (EZY)</name>
    <styleUrl>#nonSchengenStyle</styleUrl>
    <LineString>
      <altitudeMode>clampToGround</altitudeMode>
      <extrude>1</extrude>
      <tessellate>1</tessellate>
      <coordinates>
        -0.19027777777777777,51.14805555555556
        2.0832941,41.297445
      </coordinates>
    </LineString>
  </Placemark>
  <Placemark>
    <name>Route GCLP - LEBL (VLG)</name>
    <styleUrl>#nonSchengenStyle</styleUrl>
    <LineString>
      <altitudeMode>clampToGround</altitudeMode>
      <extrude>1</extrude>
      <tessellate>1</tessellate>
      <coordinates>
        -15.386666666666667,27.931944444444447
        2.0832941,41.297445
      </coordinates>
    </LineString>
  </Placemark>
  <Placemark>
    <name>Route EGCC - LEBL (MON)</name>
    <styleUrl>#nonSchengenStyle</styleUrl>
    <LineString>
      <altitudeMode>clampToGround</altitudeMode>
      <extrude>1</extrude>
      <tessellate>1</tessellate>
      <coordinates>
        -2.275,53.35388888888889
        2.0832941,41.297445
      </coordinates>
    </LineString>
  </Placemark>
  <Placemark>
    <name>Route KPHL - LEBL (AAL)</name>
    <styleUrl>#nonSchengenStyle</styleUrl>
    <LineString>
      <altitudeMode>clampToGround</altitudeMode>
      <extrude>1</extrude>
      <tessellate>1</tessellate>
      <coordinates>
        -75.245,39.87
        2.0832941,41.297445
      </coordinates>
    </LineString>
  </Placemark>
  <Placemark>
    <name>Route UUEE - LEBL (AFL)</name>
    <styleUrl>#nonSchengenStyle</styleUrl>
    <LineString>
      <altitudeMode>clampToGround</altitudeMode>
      <extrude>1</extrude>
      <tessellate>1</tessellate>
      <coordinates>
        37.41305555555555,55.972500000000004
        2.0832941,41.297445
      </coordinates>
    </LineString>
  </Placemark>
  <Placemark>
    <name>Route GCXO - LEBL (VLG)</name>
    <styleUrl>#nonSchengenStyle</styleUrl>
    <LineString>
      <altitudeMode>clampToGround</altitudeMode>
      <extrude>1</extrude>
      <tessellate>1</tessellate>
      <coordinates>
        -16.341666666666665,28.482777777777777
        2.0832941,41.297445
      </coordinates>
    </LineString>
  </Placemark>
  <Placemark>
    <name>Route ULLI - LEBL (SDM)</name>
    <styleUrl>#nonSchengenStyle</styleUrl>
    <LineString>
      <altitudeMode>clampToGround</altitudeMode>
      <extrude>1</extrude>
      <tessellate>1</tessellate>
      <coordinates>
        30.2625,59.80027777777777
        2.0832941,41.297445
      </coordinates>
    </LineString>
  </Placemark>
  <Placemark>
    <name>Route LDZA - LEBL (VLG)</name>
    <styleUrl>#nonSchengenStyle</styleUrl>
    <LineString>
      <altitudeMode>clampToGround</altitudeMode>
      <extrude>1</extrude>
      <tessellate>1</tessellate>
      <coordinates>
        16.06888888888889,45.74305555555556
        2.0832941,41.297445
      </coordinates>
    </LineString>
  </Placemark>
  <Placemark>
    <name>Route EGSS - LEBL (RYR)</name>
    <styleUrl>#nonSchengenStyle</styleUrl>
    <LineString>
      <altitudeMode>clampToGround</altitudeMode>
      <extrude>1</extrude>
      <tessellate>1</tessellate>
      <coordinates>
        0.23500000000000001,51.885
        2.0832941,41.297445
      </coordinates>
    </LineString>
  </Placemark>
  <Placemark>
    <name>Route EGGW - LEBL (EZY)</name>
    <styleUrl>#nonSchengenStyle</styleUrl>
    <LineString>
      <altitudeMode>clampToGround</altitudeMode>
      <extrude>1</extrude>
      <tessellate>1</tessellate>
      <coordinates>
        -0.3683333333333333,51.874722222222225
        2.0832941,41.297445
      </coordinates>
    </LineString>
  </Placemark>
  <Placemark>
    <name>Route EGCC - LEBL (EXS)</name>
    <styleUrl>#nonSchengenStyle</styleUrl>
    <LineString>
      <altitudeMode>clampToGround</altitudeMode>
      <extrude>1</extrude>
      <tessellate>1</tessellate>
      <coordinates>
        -2.275,53.35388888888889
        2.0832941,41.297445
      </coordinates>
    </LineString>
  </Placemark>
  <Placemark>
    <name>Route LLBG - LEBL (ZZZ)</name>
    <styleUrl>#nonSchengenStyle</styleUrl>
    <LineString>
      <altitudeMode>clampToGround</altitudeMode>
      <extrude>1</extrude>
      <tessellate>1</tessellate>
      <coordinates>
        34.885555555555555,32.00944444444445
        2.0832941,41.297445
      </coordinates>
    </LineString>
  </Placemark>
  <Placemark>
    <name>Route CYYZ - LEBL (ROU)</name>
    <styleUrl>#nonSchengenStyle</styleUrl>
    <LineString>
      <altitudeMode>clampToGround</altitudeMode>
      <extrude>1</extrude>
      <tessellate>1</tessellate>
      <coordinates>
        -79.63055555555555,43.67722222222222
        2.0832941,41.297445
      </coordinates>
    </LineString>
  </Placemark>
  <Placemark>
    <name>Route LDSP - LEBL (VLG)</name>
    <styleUrl>#nonSchengenStyle</styleUrl>
    <LineString>
      <altitudeMode>clampToGround</altitudeMode>
      <extrude>1</extrude>
      <tessellate>1</tessellate>
      <coordinates>
        16.298055555555557,43.538888888888884
        2.0832941,41.297445
      </coordinates>
    </LineString>
  </Placemark>
  <Placemark>
    <name>Route LLBG - LEBL (VLG)</name>
    <styleUrl>#nonSchengenStyle</styleUrl>
    <LineString>
      <altitudeMode>clampToGround</altitudeMode>
      <extrude>1</extrude>
      <tessellate>1</tessellate>
      <coordinates>
        34.885555555555555,32.00944444444445
        2.0832941,41.297445
      </coordinates>
    </LineString>
  </Placemark>
  <Placemark>
    <name>Route GMMN - LEBL (RAM)</name>
    <styleUrl>#nonSchengenStyle</styleUrl>
    <LineString>
      <altitudeMode>clampToGround</altitudeMode>
      <extrude>1</extrude>
      <tessellate>1</tessellate>
      <coordinates>
        -7.581666666666666,33.36416666666667
        2.0832941,41.297445
      </coordinates>
    </LineString>
  </Placemark>
  <Placemark>
    <name>Route EGGW - LEBL (VLG)</name>
    <styleUrl>#nonSchengenStyle</styleUrl>
    <LineString>
      <altitudeMode>clampToGround</altitudeMode>
      <extrude>1</extrude>
      <tessellate>1</tessellate>
      <coordinates>
        -0.3683333333333333,51.874722222222225
        2.0832941,41.297445
      </coordinates>
    </LineString>
  </Placemark>
  <Placemark>
    <name>Route DTTA - LEBL (TAR)</name>
    <styleUrl>#nonSchengenStyle</styleUrl>
    <LineString>
      <altitudeMode>clampToGround</altitudeMode>
      <extrude>1</extrude>
      <tessellate>1</tessellate>
      <coordinates>
        10.226944444444445,36.85111111111111
        2.0832941,41.297445
      </coordinates>
    </LineString>
  </Placemark>
  <Placemark>
    <name>Route EGNM - LEBL (EXS)</name>
    <styleUrl>#nonSchengenStyle</styleUrl>
    <LineString>
      <altitudeMode>clampToGround</altitudeMode>
      <extrude>1</extrude>
      <tessellate>1</tessellate>
      <coordinates>
        -1.6608333333333332,53.86611111111111
        2.0832941,41.297445
      </coordinates>
    </LineString>
  </Placemark>
  <Placemark>
    <name>Route KJFK - LEBL (DAL)</name>
    <styleUrl>#nonSchengenStyle</styleUrl>
    <LineString>
      <altitudeMode>clampToGround</altitudeMode>
      <extrude>1</extrude>
      <tessellate>1</tessellate>
      <coordinates>
        -73.77833333333334,40.640277777777776
        2.0832941,41.297445
      </coordinates>
    </LineString>
  </Placemark>
  <Placemark>
    <name>Route EGLL - LEBL (BAW)</name>
    <styleUrl>#nonSchengenStyle</styleUrl>
    <LineString>
      <altitudeMode>clampToGround</altitudeMode>
      <extrude>1</extrude>
      <tessellate>1</tessellate>
      <coordinates>
        -0.4613888888888889,51.4775
        2.0832941,41.297445
      </coordinates>
    </LineString>
  </Placemark>
  <Placemark>
    <name>Route KCLT - LEBL (AAL)</name>
    <styleUrl>#nonSchengenStyle</styleUrl>
    <LineString>
      <altitudeMode>clampToGround</altitudeMode>
      <extrude>1</extrude>
      <tessellate>1</tessellate>
      <coordinates>
        -80.95,35.21666666666667
        2.0832941,41.297445
      </coordinates>
    </LineString>
  </Placemark>
  <Placemark>
    <name>Route EGKK - LEBL (EZY)</name>
    <styleUrl>#nonSchengenStyle</styleUrl>
    <LineString>
      <altitudeMode>clampToGround</altitudeMode>
      <extrude>1</extrude>
      <tessellate>1</tessellate>
      <coordinates>
        -0.19027777777777777,51.14805555555556
        2.0832941,41.297445
      </coordinates>
    </LineString>
  </Placemark>
  <Placemark>
    <name>Route CYUL - LEBL (TSC)</name>
    <styleUrl>#nonSchengenStyle</styleUrl>
    <LineString>
      <altitudeMode>clampToGround</altitudeMode>
      <extrude>1</extrude>
      <tessellate>1</tessellate>
      <coordinates>
        -73.74138888888889,45.46805555555556
        2.0832941,41.297445
      </coordinates>
    </LineString>
  </Placemark>
  <Placemark>
    <name>Route CYYZ - LEBL (TSC)</name>
    <styleUrl>#nonSchengenStyle</styleUrl>
    <LineString>
      <altitudeMode>clampToGround</altitudeMode>
      <extrude>1</extrude>
      <tessellate>1</tessellate>
      <coordinates>
        -79.63055555555555,43.67722222222222
        2.0832941,41.297445
      </coordinates>
    </LineString>
  </Placemark>
  <Placemark>
    <name>Route EGKK - LEBL (VLG)</name>
    <styleUrl>#nonSchengenStyle</styleUrl>
    <LineString>
      <altitudeMode>clampToGround</altitudeMode>
      <extrude>1</extrude>
      <tessellate>1</tessellate>
      <coordinates>
        -0.19027777777777777,51.14805555555556
        2.0832941,41.297445
      </coordinates>
    </LineString>
  </Placemark>
  <Placemark>
    <name>Route KIAD - LEBL (UAL)</name>
    <styleUrl>#nonSchengenStyle</styleUrl>
    <LineString>
      <altitudeMode>clampToGround</altitudeMode>
      <extrude>1</extrude>
      <tessellate>1</tessellate>
      <coordinates>
        -77.45666666666666,38.94499999999999
        2.0832941,41.297445
      </coordinates>
    </LineString>
  </Placemark>
  <Placemark>
    <name>Route UKBB - LEBL (AUI)</name>
    <styleUrl>#nonSchengenStyle</styleUrl>
    <LineString>
      <altitudeMode>clampToGround</altitudeMode>
      <extrude>1</extrude>
      <tessellate>1</tessellate>
      <coordinates>
        30.893333333333334,50.344722222222224
        2.0832941,41.297445
      </coordinates>
    </LineString>
  </Placemark>
  <Placemark>
    <name>Route LLBG - LEBL (ELY)</name>
    <styleUrl>#nonSchengenStyle</styleUrl>
    <LineString>
      <altitudeMode>clampToGround</altitudeMode>
      <extrude>1</extrude>
      <tessellate>1</tessellate>
      <coordinates>
        34.885555555555555,32.00944444444445
        2.0832941,41.297445
      </coordinates>
    </LineString>
  </Placemark>
  <Placemark>
    <name>Route EGNX - LEBL (RYR)</name>
    <styleUrl>#nonSchengenStyle</styleUrl>
    <LineString>
      <altitudeMode>clampToGround</altitudeMode>
      <extrude>1</extrude>
      <tessellate>1</tessellate>
      <coordinates>
        -1.3277777777777777,52.83111111111111
        2.0832941,41.297445
      </coordinates>
    </LineString>
  </Placemark>
  <Placemark>
    <name>Route LTFJ - LEBL (THY)</name>
    <styleUrl>#nonSchengenStyle</styleUrl>
    <LineString>
      <altitudeMode>clampToGround</altitudeMode>
      <extrude>1</extrude>
      <tessellate>1</tessellate>
      <coordinates>
        29.309166666666666,40.89833333333333
        2.0832941,41.297445
      </coordinates>
    </LineString>
  </Placemark>
  <Placemark>
    <name>Route UKBB - LEBL (AUI)</name>
    <styleUrl>#nonSchengenStyle</styleUrl>
    <LineString>
      <altitudeMode>clampToGround</altitudeMode>
      <extrude>1</extrude>
      <tessellate>1</tessellate>
      <coordinates>
        30.893333333333334,50.344722222222224
        2.0832941,41.297445
      </coordinates>
    </LineString>
  </Placemark>
  <Placemark>
    <name>Route EGBB - LEBL (VLG)</name>
    <styleUrl>#nonSchengenStyle</styleUrl>
    <LineString>
      <altitudeMode>clampToGround</altitudeMode>
      <extrude>1</extrude>
      <tessellate>1</tessellate>
      <coordinates>
        -1.7480555555555557,52.45388888888889
        2.0832941,41.297445
      </coordinates>
    </LineString>
  </Placemark>
  <Placemark>
    <name>Route OTHH - LEBL (QTR)</name>
    <styleUrl>#nonSchengenStyle</styleUrl>
    <LineString>
      <altitudeMode>clampToGround</altitudeMode>
      <extrude>1</extrude>
      <tessellate>1</tessellate>
      <coordinates>
        51.608333333333334,25.274444444444445
        2.0832941,41.297445
      </coordinates>
    </LineString>
  </Placemark>
  <Placemark>
    <name>Route OMDB - LEBL (UAE)</name>
    <styleUrl>#nonSchengenStyle</styleUrl>
    <LineString>
      <altitudeMode>clampToGround</altitudeMode>
      <extrude>1</extrude>
      <tessellate>1</tessellate>
      <coordinates>
        55.36,25.249166666666667
        2.0832941,41.297445
      </coordinates>
    </LineString>
  </Placemark>
  <Placemark>
    <name>Route GMMX - LEBL (RYR)</name>
    <styleUrl>#nonSchengenStyle</styleUrl>
    <LineString>
      <altitudeMode>clampToGround</altitudeMode>
      <extrude>1</extrude>
      <tessellate>1</tessellate>
      <coordinates>
        -8.040833333333333,31.608611111111113
        2.0832941,41.297445
      </coordinates>
    </LineString>
  </Placemark>
  <Placemark>
    <name>Route LTBA - LEBL (THY)</name>
    <styleUrl>#nonSchengenStyle</styleUrl>
    <LineString>
      <altitudeMode>clampToGround</altitudeMode>
      <extrude>1</extrude>
      <tessellate>1</tessellate>
      <coordinates>
        28.81416666666667,40.976111111111116
        2.0832941,41.297445
      </coordinates>
    </LineString>
  </Placemark>
  <Placemark>
    <name>Route LTFJ - LEBL (PGT)</name>
    <styleUrl>#nonSchengenStyle</styleUrl>
    <LineString>
      <altitudeMode>clampToGround</altitudeMode>
      <extrude>1</extrude>
      <tessellate>1</tessellate>
      <coordinates>
        29.309166666666666,40.89833333333333
        2.0832941,41.297445
      </coordinates>
    </LineString>
  </Placemark>
  <Placemark>
    <name>Route HECA - LEBL (MSR)</name>
    <styleUrl>#nonSchengenStyle</styleUrl>
    <LineString>
      <altitudeMode>clampToGround</altitudeMode>
      <extrude>1</extrude>
      <tessellate>1</tessellate>
      <coordinates>
        31.413888888888888,30.11138888888889
        2.0832941,41.297445
      </coordinates>
    </LineString>
  </Placemark>
  <Placemark>
    <name>Route EGLL - LEBL (BAW)</name>
    <styleUrl>#nonSchengenStyle</styleUrl>
    <LineString>
      <altitudeMode>clampToGround</altitudeMode>
      <extrude>1</extrude>
      <tessellate>1</tessellate>
      <coordinates>
        -0.4613888888888889,51.4775
        2.0832941,41.297445
      </coordinates>
    </LineString>
  </Placemark>
  <Placemark>
    <name>Route GMFF - LEBL (VLG)</name>
    <styleUrl>#nonSchengenStyle</styleUrl>
    <LineString>
      <altitudeMode>clampToGround</altitudeMode>
      <extrude>1</extrude>
      <tessellate>1</tessellate>
      <coordinates>
        -4.977777777777778,33.92722222222222
        2.0832941,41.297445
      </coordinates>
    </LineString>
  </Placemark>
  <Placemark>
    <name>Route ETNL - LEBL (LAV)</name>
    <styleUrl>#nonSchengenStyle</styleUrl>
    <LineString>
      <altitudeMode>clampToGround</altitudeMode>
      <extrude>1</extrude>
      <tessellate>1</tessellate>
      <coordinates>
        12.278333333333334,53.91916666666666
        2.0832941,41.297445
      </coordinates>
    </LineString>
  </Placemark>
  <Placemark>
    <name>Route EGKK - LEBL (EZY)</name>
    <styleUrl>#nonSchengenStyle</styleUrl>
    <LineString>
      <altitudeMode>clampToGround</altitudeMode>
      <extrude>1</extrude>
      <tessellate>1</tessellate>
      <coordinates>
        -0.19027777777777777,51.14805555555556
        2.0832941,41.297445
      </coordinates>
    </LineString>
  </Placemark>
  <Placemark>
    <name>Route EGKK - LEBL (BAW)</name>
    <styleUrl>#nonSchengenStyle</styleUrl>
    <LineString>
      <altitudeMode>clampToGround</altitudeMode>
      <extrude>1</extrude>
      <tessellate>1</tessellate>
      <coordinates>
        -0.19027777777777777,51.14805555555556
        2.0832941,41.297445
      </coordinates>
    </LineString>
  </Placemark>
  <Placemark>
    <name>Route SKBO - LEBL (AVA)</name>
    <styleUrl>#nonSchengenStyle</styleUrl>
    <LineString>
      <altitudeMode>clampToGround</altitudeMode>
      <extrude>1</extrude>
      <tessellate>1</tessellate>
      <coordinates>
        -74.15,4.7
        2.0832941,41.297445
      </coordinates>
    </LineString>
  </Placemark>
  <Placemark>
    <name>Route EGLL - LEBL (ROJ)</name>
    <styleUrl>#nonSchengenStyle</styleUrl>
    <LineString>
      <altitudeMode>clampToGround</altitudeMode>
      <extrude>1</extrude>
      <tessellate>1</tessellate>
      <coordinates>
        -0.4613888888888889,51.4775
        2.0832941,41.297445
      </coordinates>
    </LineString>
  </Placemark>
  <Placemark>
    <name>Route LYTV - LEBL (EXU)</name>
    <styleUrl>#nonSchengenStyle</styleUrl>
    <LineString>
      <altitudeMode>clampToGround</altitudeMode>
      <extrude>1</extrude>
      <tessellate>1</tessellate>
      <coordinates>
        18.723333333333333,42.40472222222222
        2.0832941,41.297445
      </coordinates>
    </LineString>
  </Placemark>
  <Placemark>
    <name>Route EGSS - LEBL (RYR)</name>
    <styleUrl>#nonSchengenStyle</styleUrl>
    <LineString>
      <altitudeMode>clampToGround</altitudeMode>
      <extrude>1</extrude>
      <tessellate>1</tessellate>
      <coordinates>
        0.23500000000000001,51.885
        2.0832941,41.297445
      </coordinates>
    </LineString>
  </Placemark>
  <Placemark>
    <name>Route GCXO - LEBL (IBK)</name>
    <styleUrl>#nonSchengenStyle</styleUrl>
    <LineString>
      <altitudeMode>clampToGround</altitudeMode>
      <extrude>1</extrude>
      <tessellate>1</tessellate>
      <coordinates>
        -16.341666666666665,28.482777777777777
        2.0832941,41.297445
      </coordinates>
    </LineString>
  </Placemark>
  <Placemark>
    <name>Route SAEZ - LEBL (ARG)</name>
    <styleUrl>#nonSchengenStyle</styleUrl>
    <LineString>
      <altitudeMode>clampToGround</altitudeMode>
      <extrude>1</extrude>
      <tessellate>1</tessellate>
      <coordinates>
        -58.53583333333333,-34.82222222222222
        2.0832941,41.297445
      </coordinates>
    </LineString>
  </Placemark>
  <Placemark>
    <name>Route UUEE - LEBL (AFL)</name>
    <styleUrl>#nonSchengenStyle</styleUrl>
    <LineString>
      <altitudeMode>clampToGround</altitudeMode>
      <extrude>1</extrude>
      <tessellate>1</tessellate>
      <coordinates>
        37.41305555555555,55.972500000000004
        2.0832941,41.297445
      </coordinates>
    </LineString>
  </Placemark>
  <Placemark>
    <name>Route SBGR - LEBL (TAM)</name>
    <styleUrl>#nonSchengenStyle</styleUrl>
    <LineString>
      <altitudeMode>clampToGround</altitudeMode>
      <extrude>1</extrude>
      <tessellate>1</tessellate>
      <coordinates>
        -46.47,-23.433333333333334
        2.0832941,41.297445
      </coordinates>
    </LineString>
  </Placemark>
  <Placemark>
    <name>Route GMMN - LEBL (MAC)</name>
    <styleUrl>#nonSchengenStyle</styleUrl>
    <LineString>
      <altitudeMode>clampToGround</altitudeMode>
      <extrude>1</extrude>
      <tessellate>1</tessellate>
      <coordinates>
        -7.581666666666666,33.36416666666667
        2.0832941,41.297445
      </coordinates>
    </LineString>
  </Placemark>
  <Placemark>
    <name>Route LTBA - LEBL (THY)</name>
    <styleUrl>#nonSchengenStyle</styleUrl>
    <LineString>
      <altitudeMode>clampToGround</altitudeMode>
      <extrude>1</extrude>
      <tessellate>1</tessellate>
      <coordinates>
        28.81416666666667,40.976111111111116
        2.0832941,41.297445
      </coordinates>
    </LineString>
  </Placemark>
  <Placemark>
    <name>Route LTFJ - LEBL (PGT)</name>
    <styleUrl>#nonSchengenStyle</styleUrl>
    <LineString>
      <altitudeMode>clampToGround</altitudeMode>
      <extrude>1</extrude>
      <tessellate>1</tessellate>
      <coordinates>
        29.309166666666666,40.89833333333333
        2.0832941,41.297445
      </coordinates>
    </LineString>
  </Placemark>
  <Placemark>
    <name>Route EGNT - LEBL (VLG)</name>
    <styleUrl>#nonSchengenStyle</styleUrl>
    <LineString>
      <altitudeMode>clampToGround</altitudeMode>
      <extrude>1</extrude>
      <tessellate>1</tessellate>
      <coordinates>
        -1.6897222222222223,55.03805555555555
        2.0832941,41.297445
      </coordinates>
    </LineString>
  </Placemark>
  <Placemark>
    <name>Route UUDD - LEBL (KTK)</name>
    <styleUrl>#nonSchengenStyle</styleUrl>
    <LineString>
      <altitudeMode>clampToGround</altitudeMode>
      <extrude>1</extrude>
      <tessellate>1</tessellate>
      <coordinates>
        37.906388888888884,55.40861111111111
        2.0832941,41.297445
      </coordinates>
    </LineString>
  </Placemark>
  <Placemark>
    <name>Route GCFV - LEBL (VLG)</name>
    <styleUrl>#nonSchengenStyle</styleUrl>
    <LineString>
      <altitudeMode>clampToGround</altitudeMode>
      <extrude>1</extrude>
      <tessellate>1</tessellate>
      <coordinates>
        -13.863888888888889,28.452777777777776
        2.0832941,41.297445
      </coordinates>
    </LineString>
  </Placemark>
  <Placemark>
    <name>Route LDDU - LEBL (ZZZ)</name>
    <styleUrl>#nonSchengenStyle</styleUrl>
    <LineString>
      <altitudeMode>clampToGround</altitudeMode>
      <extrude>1</extrude>
      <tessellate>1</tessellate>
      <coordinates>
        18.26833333333333,42.561388888888885
        2.0832941,41.297445
      </coordinates>
    </LineString>
  </Placemark>
  <Placemark>
    <name>Route EGGP - LEBL (VLG)</name>
    <styleUrl>#nonSchengenStyle</styleUrl>
    <LineString>
      <altitudeMode>clampToGround</altitudeMode>
      <extrude>1</extrude>
      <tessellate>1</tessellate>
      <coordinates>
        -2.8497222222222223,53.33361111111111
        2.0832941,41.297445
      </coordinates>
    </LineString>
  </Placemark>
  <Placemark>
    <name>Route EGLL - LEBL (BAW)</name>
    <styleUrl>#nonSchengenStyle</styleUrl>
    <LineString>
      <altitudeMode>clampToGround</altitudeMode>
      <extrude>1</extrude>
      <tessellate>1</tessellate>
      <coordinates>
        -0.4613888888888889,51.4775
        2.0832941,41.297445
      </coordinates>
    </LineString>
  </Placemark>
  <Placemark>
    <name>Route EGGP - LEBL (RYR)</name>
    <styleUrl>#nonSchengenStyle</styleUrl>
    <LineString>
      <altitudeMode>clampToGround</altitudeMode>
      <extrude>1</extrude>
      <tessellate>1</tessellate>
      <coordinates>
        -2.8497222222222223,53.33361111111111
        2.0832941,41.297445
      </coordinates>
    </LineString>
  </Placemark>
  <Placemark>
    <name>Route GMMN - LEBL (RAM)</name>
    <styleUrl>#nonSchengenStyle</styleUrl>
    <LineString>
      <altitudeMode>clampToGround</altitudeMode>
      <extrude>1</extrude>
      <tessellate>1</tessellate>
      <coordinates>
        -7.581666666666666,33.36416666666667
        2.0832941,41.297445
      </coordinates>
    </LineString>
  </Placemark>
  <Placemark>
    <name>Route EGKK - LEBL (VLG)</name>
    <styleUrl>#nonSchengenStyle</styleUrl>
    <LineString>
      <altitudeMode>clampToGround</altitudeMode>
      <extrude>1</extrude>
      <tessellate>1</tessellate>
      <coordinates>
        -0.19027777777777777,51.14805555555556
        2.0832941,41.297445
      </coordinates>
    </LineString>
  </Placemark>
  <Placemark>
    <name>Route EGKK - LEBL (EZY)</name>
    <styleUrl>#nonSchengenStyle</styleUrl>
    <LineString>
      <altitudeMode>clampToGround</altitudeMode>
      <extrude>1</extrude>
      <tessellate>1</tessellate>
      <coordinates>
        -0.19027777777777777,51.14805555555556
        2.0832941,41.297445
      </coordinates>
    </LineString>
  </Placemark>
  <Placemark>
    <name>Route GMMX - LEBL (EXU)</name>
    <styleUrl>#nonSchengenStyle</styleUrl>
    <LineString>
      <altitudeMode>clampToGround</altitudeMode>
      <extrude>1</extrude>
      <tessellate>1</tessellate>
      <coordinates>
        -8.040833333333333,31.608611111111113
        2.0832941,41.297445
      </coordinates>
    </LineString>
  </Placemark>
  <Placemark>
    <name>Route EGFF - LEBL (VLG)</name>
    <styleUrl>#nonSchengenStyle</styleUrl>
    <LineString>
      <altitudeMode>clampToGround</altitudeMode>
      <extrude>1</extrude>
      <tessellate>1</tessellate>
      <coordinates>
        -3.3433333333333333,51.39666666666667
        2.0832941,41.297445
      </coordinates>
    </LineString>
  </Placemark>
  <Placemark>
    <name>Route EGNM - LEBL (MON)</name>
    <styleUrl>#nonSchengenStyle</styleUrl>
    <LineString>
      <altitudeMode>clampToGround</altitudeMode>
      <extrude>1</extrude>
      <tessellate>1</tessellate>
      <coordinates>
        -1.6608333333333332,53.86611111111111
        2.0832941,41.297445
      </coordinates>
    </LineString>
  </Placemark>
  <Placemark>
    <name>Route GCXO - LEBL (VLG)</name>
    <styleUrl>#nonSchengenStyle</styleUrl>
    <LineString>
      <altitudeMode>clampToGround</altitudeMode>
      <extrude>1</extrude>
      <tessellate>1</tessellate>
      <coordinates>
        -16.341666666666665,28.482777777777777
        2.0832941,41.297445
      </coordinates>
    </LineString>
  </Placemark>
  <Placemark>
    <name>Route EGSS - LEBL (RYR)</name>
    <styleUrl>#nonSchengenStyle</styleUrl>
    <LineString>
      <altitudeMode>clampToGround</altitudeMode>
      <extrude>1</extrude>
      <tessellate>1</tessellate>
      <coordinates>
        0.23500000000000001,51.885
        2.0832941,41.297445
      </coordinates>
    </LineString>
  </Placemark>
  <Placemark>
    <name>Route GCRR - LEBL (VLG)</name>
    <styleUrl>#nonSchengenStyle</styleUrl>
    <LineString>
      <altitudeMode>clampToGround</altitudeMode>
      <extrude>1</extrude>
      <tessellate>1</tessellate>
      <coordinates>
        -13.605277777777777,28.945555555555554
        2.0832941,41.297445
      </coordinates>
    </LineString>
  </Placemark>
  <Placemark>
    <name>Route LRCL - LEBL (WZZ)</name>
    <styleUrl>#nonSchengenStyle</styleUrl>
    <LineString>
      <altitudeMode>clampToGround</altitudeMode>
      <extrude>1</extrude>
      <tessellate>1</tessellate>
      <coordinates>
        23.692222222222224,46.78916666666667
        2.0832941,41.297445
      </coordinates>
    </LineString>
  </Placemark>
  <Placemark>
    <name>Route EGNM - LEBL (VLG)</name>
    <styleUrl>#nonSchengenStyle</styleUrl>
    <LineString>
      <altitudeMode>clampToGround</altitudeMode>
      <extrude>1</extrude>
      <tessellate>1</tessellate>
      <coordinates>
        -1.6608333333333332,53.86611111111111
        2.0832941,41.297445
      </coordinates>
    </LineString>
  </Placemark>
  <Placemark>
    <name>Route GCLP - LEBL (VLG)</name>
    <styleUrl>#nonSchengenStyle</styleUrl>
    <LineString>
      <altitudeMode>clampToGround</altitudeMode>
      <extrude>1</extrude>
      <tessellate>1</tessellate>
      <coordinates>
        -15.386666666666667,27.931944444444447
        2.0832941,41.297445
      </coordinates>
    </LineString>
  </Placemark>
  <Placemark>
    <name>Route GCXO - LEBL (AEA)</name>
    <styleUrl>#nonSchengenStyle</styleUrl>
    <LineString>
      <altitudeMode>clampToGround</altitudeMode>
      <extrude>1</extrude>
      <tessellate>1</tessellate>
      <coordinates>
        -16.341666666666665,28.482777777777777
        2.0832941,41.297445
      </coordinates>
    </LineString>
  </Placemark>
  <Placemark>
    <name>Route EGLL - LEBL (BAW)</name>
    <styleUrl>#nonSchengenStyle</styleUrl>
    <LineString>
      <altitudeMode>clampToGround</altitudeMode>
      <extrude>1</extrude>
      <tessellate>1</tessellate>
      <coordinates>
        -0.4613888888888889,51.4775
        2.0832941,41.297445
      </coordinates>
    </LineString>
  </Placemark>
  <Placemark>
    <name>Route EGKK - LEBL (EZY)</name>
    <styleUrl>#nonSchengenStyle</styleUrl>
    <LineString>
      <altitudeMode>clampToGround</altitudeMode>
      <extrude>1</extrude>
      <tessellate>1</tessellate>
      <coordinates>
        -0.19027777777777777,51.14805555555556
        2.0832941,41.297445
      </coordinates>
    </LineString>
  </Placemark>
  <Placemark>
    <name>Route OTHH - LEBL (QTR)</name>
    <styleUrl>#nonSchengenStyle</styleUrl>
    <LineString>
      <altitudeMode>clampToGround</altitudeMode>
      <extrude>1</extrude>
      <tessellate>1</tessellate>
      <coordinates>
        51.608333333333334,25.274444444444445
        2.0832941,41.297445
      </coordinates>
    </LineString>
  </Placemark>
  <Placemark>
    <name>Route DAAG - LEBL (DAH)</name>
    <styleUrl>#nonSchengenStyle</styleUrl>
    <LineString>
      <altitudeMode>clampToGround</altitudeMode>
      <extrude>1</extrude>
      <tessellate>1</tessellate>
      <coordinates>
        3.2144444444444447,36.693888888888885
        2.0832941,41.297445
      </coordinates>
    </LineString>
  </Placemark>
  <Placemark>
    <name>Route EGMC - LEBL (EZY)</name>
    <styleUrl>#nonSchengenStyle</styleUrl>
    <LineString>
      <altitudeMode>clampToGround</altitudeMode>
      <extrude>1</extrude>
      <tessellate>1</tessellate>
      <coordinates>
        0.6933333333333334,51.57027777777778
        2.0832941,41.297445
      </coordinates>
    </LineString>
  </Placemark>
  <Placemark>
    <name>Route EGLL - LEBL (BAW)</name>
    <styleUrl>#nonSchengenStyle</styleUrl>
    <LineString>
      <altitudeMode>clampToGround</altitudeMode>
      <extrude>1</extrude>
      <tessellate>1</tessellate>
      <coordinates>
        -0.4613888888888889,51.4775
        2.0832941,41.297445
      </coordinates>
    </LineString>
  </Placemark>
  <Placemark>
    <name>Route OMDB - LEBL (UAE)</name>
    <styleUrl>#nonSchengenStyle</styleUrl>
    <LineString>
      <altitudeMode>clampToGround</altitudeMode>
      <extrude>1</extrude>
      <tessellate>1</tessellate>
      <coordinates>
        55.36,25.249166666666667
        2.0832941,41.297445
      </coordinates>
    </LineString>
  </Placemark>
  <Placemark>
    <name>Route EIDW - LEBL (RYR)</name>
    <styleUrl>#nonSchengenStyle</styleUrl>
    <LineString>
      <altitudeMode>clampToGround</altitudeMode>
      <extrude>1</extrude>
      <tessellate>1</tessellate>
      <coordinates>
        -6.27,53.421388888888885
        2.0832941,41.297445
      </coordinates>
    </LineString>
  </Placemark>
  <Placemark>
    <name>Route EGNT - LEBL (EZY)</name>
    <styleUrl>#nonSchengenStyle</styleUrl>
    <LineString>
      <altitudeMode>clampToGround</altitudeMode>
      <extrude>1</extrude>
      <tessellate>1</tessellate>
      <coordinates>
        -1.6897222222222223,55.03805555555555
        2.0832941,41.297445
      </coordinates>
    </LineString>
  </Placemark>
  <Placemark>
    <name>Route GCRR - LEBL (RYR)</name>
    <styleUrl>#nonSchengenStyle</styleUrl>
    <LineString>
      <altitudeMode>clampToGround</altitudeMode>
      <extrude>1</extrude>
      <tessellate>1</tessellate>
      <coordinates>
        -13.605277777777777,28.945555555555554
        2.0832941,41.297445
      </coordinates>
    </LineString>
  </Placemark>
  <Placemark>
    <name>Route LWSK - LEBL (WZZ)</name>
    <styleUrl>#nonSchengenStyle</styleUrl>
    <LineString>
      <altitudeMode>clampToGround</altitudeMode>
      <extrude>1</extrude>
      <tessellate>1</tessellate>
      <coordinates>
        21.62138888888889,41.961666666666666
        2.0832941,41.297445
      </coordinates>
    </LineString>
  </Placemark>
  <Placemark>
    <name>Route EGPK - LEBL (RYR)</name>
    <styleUrl>#nonSchengenStyle</styleUrl>
    <LineString>
      <altitudeMode>clampToGround</altitudeMode>
      <extrude>1</extrude>
      <tessellate>1</tessellate>
      <coordinates>
        -4.594444444444444,55.50944444444445
        2.0832941,41.297445
      </coordinates>
    </LineString>
  </Placemark>
  <Placemark>
    <name>Route EGGP - LEBL (EZY)</name>
    <styleUrl>#nonSchengenStyle</styleUrl>
    <LineString>
      <altitudeMode>clampToGround</altitudeMode>
      <extrude>1</extrude>
      <tessellate>1</tessellate>
      <coordinates>
        -2.8497222222222223,53.33361111111111
        2.0832941,41.297445
      </coordinates>
    </LineString>
  </Placemark>
  <Placemark>
    <name>Route GCLP - LEBL (RYR)</name>
    <styleUrl>#nonSchengenStyle</styleUrl>
    <LineString>
      <altitudeMode>clampToGround</altitudeMode>
      <extrude>1</extrude>
      <tessellate>1</tessellate>
      <coordinates>
        -15.386666666666667,27.931944444444447
        2.0832941,41.297445
      </coordinates>
    </LineString>
  </Placemark>
  <Placemark>
    <name>Route LBSF - LEBL (WZZ)</name>
    <styleUrl>#nonSchengenStyle</styleUrl>
    <LineString>
      <altitudeMode>clampToGround</altitudeMode>
      <extrude>1</extrude>
      <tessellate>1</tessellate>
      <coordinates>
        23.40833333333333,42.69499999999999
        2.0832941,41.297445
      </coordinates>
    </LineString>
  </Placemark>
  <Placemark>
    <name>Route HTDA - LEBL (ZZZ)</name>
    <styleUrl>#nonSchengenStyle</styleUrl>
    <LineString>
      <altitudeMode>clampToGround</altitudeMode>
      <extrude>1</extrude>
      <tessellate>1</tessellate>
      <coordinates>
        39.20333333333333,-6.875555555555556
        2.0832941,41.297445
      </coordinates>
    </LineString>
  </Placemark>
  <Placemark>
    <name>Route EGCC - LEBL (RYR)</name>
    <styleUrl>#nonSchengenStyle</styleUrl>
    <LineString>
      <altitudeMode>clampToGround</altitudeMode>
      <extrude>1</extrude>
      <tessellate>1</tessellate>
      <coordinates>
        -2.275,53.35388888888889
        2.0832941,41.297445
      </coordinates>
    </LineString>
  </Placemark>
  <Placemark>
    <name>Route EGKK - LEBL (BAW)</name>
    <styleUrl>#nonSchengenStyle</styleUrl>
    <LineString>
      <altitudeMode>clampToGround</altitudeMode>
      <extrude>1</extrude>
      <tessellate>1</tessellate>
      <coordinates>
        -0.19027777777777777,51.14805555555556
        2.0832941,41.297445
      </coordinates>
    </LineString>
  </Placemark>
  <Placemark>
    <name>Route EGGD - LEBL (EZY)</name>
    <styleUrl>#nonSchengenStyle</styleUrl>
    <LineString>
      <altitudeMode>clampToGround</altitudeMode>
      <extrude>1</extrude>
      <tessellate>1</tessellate>
      <coordinates>
        -2.7191666666666667,51.382777777777775
        2.0832941,41.297445
      </coordinates>
    </LineString>
  </Placemark>
  <Placemark>
    <name>Route EGLL - LEBL (VLG)</name>
    <styleUrl>#nonSchengenStyle</styleUrl>
    <LineString>
      <altitudeMode>clampToGround</altitudeMode>
      <extrude>1</extrude>
      <tessellate>1</tessellate>
      <coordinates>
        -0.4613888888888889,51.4775
        2.0832941,41.297445
      </coordinates>
    </LineString>
  </Placemark>
  <Placemark>
    <name>Route EIDW - LEBL (EIN)</name>
    <styleUrl>#nonSchengenStyle</styleUrl>
    <LineString>
      <altitudeMode>clampToGround</altitudeMode>
      <extrude>1</extrude>
      <tessellate>1</tessellate>
      <coordinates>
        -6.27,53.421388888888885
        2.0832941,41.297445
      </coordinates>
    </LineString>
  </Placemark>
  <Placemark>
    <name>Route GMTT - LEBL (MAC)</name>
    <styleUrl>#nonSchengenStyle</styleUrl>
    <LineString>
      <altitudeMode>clampToGround</altitudeMode>
      <extrude>1</extrude>
      <tessellate>1</tessellate>
      <coordinates>
        -5.921111111111111,35.73166666666667
        2.0832941,41.297445
      </coordinates>
    </LineString>
  </Placemark>
  <Placemark>
    <name>Route LUKK - LEBL (MLD)</name>
    <styleUrl>#nonSchengenStyle</styleUrl>
    <LineString>
      <altitudeMode>clampToGround</altitudeMode>
      <extrude>1</extrude>
      <tessellate>1</tessellate>
      <coordinates>
        28.930833333333336,46.92777777777778
        2.0832941,41.297445
      </coordinates>
    </LineString>
  </Placemark>
  <Placemark>
    <name>Route EGKK - LEBL (IBK)</name>
    <styleUrl>#nonSchengenStyle</styleUrl>
    <LineString>
      <altitudeMode>clampToGround</altitudeMode>
      <extrude>1</extrude>
      <tessellate>1</tessellate>
      <coordinates>
        -0.19027777777777777,51.14805555555556
        2.0832941,41.297445
      </coordinates>
    </LineString>
  </Placemark>
  <Placemark>
    <name>Route LROP - LEBL (ROT)</name>
    <styleUrl>#nonSchengenStyle</styleUrl>
    <LineString>
      <altitudeMode>clampToGround</altitudeMode>
      <extrude>1</extrude>
      <tessellate>1</tessellate>
      <coordinates>
        26.084999999999997,44.571111111111115
        2.0832941,41.297445
      </coordinates>
    </LineString>
  </Placemark>
  <Placemark>
    <name>Route LTBA - LEBL (THY)</name>
    <styleUrl>#nonSchengenStyle</styleUrl>
    <LineString>
      <altitudeMode>clampToGround</altitudeMode>
      <extrude>1</extrude>
      <tessellate>1</tessellate>
      <coordinates>
        28.81416666666667,40.976111111111116
        2.0832941,41.297445
      </coordinates>
    </LineString>
  </Placemark>
  <Placemark>
    <name>Route EIDW - LEBL (RYR)</name>
    <styleUrl>#nonSchengenStyle</styleUrl>
    <LineString>
      <altitudeMode>clampToGround</altitudeMode>
      <extrude>1</extrude>
      <tessellate>1</tessellate>
      <coordinates>
        -6.27,53.421388888888885
        2.0832941,41.297445
      </coordinates>
    </LineString>
  </Placemark>
  <Placemark>
    <name>Route EGLL - LEBL (BAW)</name>
    <styleUrl>#nonSchengenStyle</styleUrl>
    <LineString>
      <altitudeMode>clampToGround</altitudeMode>
      <extrude>1</extrude>
      <tessellate>1</tessellate>
      <coordinates>
        -0.4613888888888889,51.4775
        2.0832941,41.297445
      </coordinates>
    </LineString>
  </Placemark>
  <Placemark>
    <name>Route EGKK - LEBL (VLG)</name>
    <styleUrl>#nonSchengenStyle</styleUrl>
    <LineString>
      <altitudeMode>clampToGround</altitudeMode>
      <extrude>1</extrude>
      <tessellate>1</tessellate>
      <coordinates>
        -0.19027777777777777,51.14805555555556
        2.0832941,41.297445
      </coordinates>
    </LineString>
  </Placemark>
  <Placemark>
    <name>Route LDDU - LEBL (VLG)</name>
    <styleUrl>#nonSchengenStyle</styleUrl>
    <LineString>
      <altitudeMode>clampToGround</altitudeMode>
      <extrude>1</extrude>
      <tessellate>1</tessellate>
      <coordinates>
        18.26833333333333,42.561388888888885
        2.0832941,41.297445
      </coordinates>
    </LineString>
  </Placemark>
  <Placemark>
    <name>Route UUEE - LEBL (AFL)</name>
    <styleUrl>#nonSchengenStyle</styleUrl>
    <LineString>
      <altitudeMode>clampToGround</altitudeMode>
      <extrude>1</extrude>
      <tessellate>1</tessellate>
      <coordinates>
        37.41305555555555,55.972500000000004
        2.0832941,41.297445
      </coordinates>
    </LineString>
  </Placemark>
  <Placemark>
    <name>Route EIDW - LEBL (VLG)</name>
    <styleUrl>#nonSchengenStyle</styleUrl>
    <LineString>
      <altitudeMode>clampToGround</altitudeMode>
      <extrude>1</extrude>
      <tessellate>1</tessellate>
      <coordinates>
        -6.27,53.421388888888885
        2.0832941,41.297445
      </coordinates>
    </LineString>
  </Placemark>
  <Placemark>
    <name>Route EGGW - LEBL (VLG)</name>
    <styleUrl>#nonSchengenStyle</styleUrl>
    <LineString>
      <altitudeMode>clampToGround</altitudeMode>
      <extrude>1</extrude>
      <tessellate>1</tessellate>
      <coordinates>
        -0.3683333333333333,51.874722222222225
        2.0832941,41.297445
      </coordinates>
    </LineString>
  </Placemark>
  <Placemark>
    <name>Route UUDD - LEBL (AUL)</name>
    <styleUrl>#nonSchengenStyle</styleUrl>
    <LineString>
      <altitudeMode>clampToGround</altitudeMode>
      <extrude>1</extrude>
      <tessellate>1</tessellate>
      <coordinates>
        37.906388888888884,55.40861111111111
        2.0832941,41.297445
      </coordinates>
    </LineString>
  </Placemark>
  <Placemark>
    <name>Route EGSS - LEBL (RYR)</name>
    <styleUrl>#nonSchengenStyle</styleUrl>
    <LineString>
      <altitudeMode>clampToGround</altitudeMode>
      <extrude>1</extrude>
      <tessellate>1</tessellate>
      <coordinates>
        0.23500000000000001,51.885
        2.0832941,41.297445
      </coordinates>
    </LineString>
  </Placemark>
  <Placemark>
    <name>Route GCLP - LEBL (IBK)</name>
    <styleUrl>#nonSchengenStyle</styleUrl>
    <LineString>
      <altitudeMode>clampToGround</altitudeMode>
      <extrude>1</extrude>
      <tessellate>1</tessellate>
      <coordinates>
        -15.386666666666667,27.931944444444447
        2.0832941,41.297445
      </coordinates>
    </LineString>
  </Placemark>
  <Placemark>
    <name>Route EGKK - LEBL (EZY)</name>
    <styleUrl>#nonSchengenStyle</styleUrl>
    <LineString>
      <altitudeMode>clampToGround</altitudeMode>
      <extrude>1</extrude>
      <tessellate>1</tessellate>
      <coordinates>
        -0.19027777777777777,51.14805555555556
        2.0832941,41.297445
      </coordinates>
    </LineString>
  </Placemark>
  <Placemark>
    <name>Route EGKK - LEBL (VLG)</name>
    <styleUrl>#nonSchengenStyle</styleUrl>
    <LineString>
      <altitudeMode>clampToGround</altitudeMode>
      <extrude>1</extrude>
      <tessellate>1</tessellate>
      <coordinates>
        -0.19027777777777777,51.14805555555556
        2.0832941,41.297445
      </coordinates>
    </LineString>
  </Placemark>
  <Placemark>
    <name>Route EGGW - LEBL (EZY)</name>
    <styleUrl>#nonSchengenStyle</styleUrl>
    <LineString>
      <altitudeMode>clampToGround</altitudeMode>
      <extrude>1</extrude>
      <tessellate>1</tessellate>
      <coordinates>
        -0.3683333333333333,51.874722222222225
        2.0832941,41.297445
      </coordinates>
    </LineString>
  </Placemark>
  <Placemark>
    <name>Route EGCC - LEBL (VLG)</name>
    <styleUrl>#nonSchengenStyle</styleUrl>
    <LineString>
      <altitudeMode>clampToGround</altitudeMode>
      <extrude>1</extrude>
      <tessellate>1</tessellate>
      <coordinates>
        -2.275,53.35388888888889
        2.0832941,41.297445
      </coordinates>
    </LineString>
  </Placemark>
</Document>
</kml>
